[{"OBJECT_NAME":"STARLINK-35034","OBJECT_ID":"2025-192AD","EPOCH":"2026-03-09T18:25:22.676448","MEAN_MOTION":15.30190544,"ECCENTRICITY":0.00010947,"INCLINATION":53.1602,"RA_OF_ASC_NODE":232.1633,"ARG_OF_PERICENTER":72.1645,"MEAN_ANOMALY":287.9475,"EPHEMERIS_TYPE":0,"CLASSIFICATION_TYPE":"U","NORAD_CAT_ID":65431,"ELEMENT_SET_NO":999,"REV_AT_EPOCH":2939,"BSTAR":0.00070067144,"MEAN_MOTION_DOT":0.00020444,"MEAN_MOTION_DDOT":0},{"OBJECT_NAME":"COSMOS 1953","OBJECT_ID":"1988-050A","EPOCH":"2026-03-09T18:09:26.993952","MEAN_MOTION":15.28528086,"ECCENTRICITY":0.00124769,"INCLINATION":82.5105,"RA_OF_ASC_NODE":158.18,"ARG_OF_PERICENTER":122.2454,"MEAN_ANOMALY":237.9996,"EPHEMERIS_TYPE":0,"CLASSIFICATION_TYPE":"U","NORAD_CAT_ID":19210,"ELEMENT_SET_NO":999,"REV_AT_EPOCH":3779,"BSTAR":0.00029210954,"MEAN_MOTION_DOT":8.158e-5,"MEAN_MOTION_DDOT":0}]
